{
  "type": "FeatureCollection",
  "features": [
    {
      "type": "Feature",
      "properties": {
        "norad_id": 30683,
        "name": "FENGYUN 1C DEB",
        "group": "fengyun-1c-debris",
        "lat": 40.5969859878384,
        "lon": 5.067707558933314,
        "alt_km": 969.2270336503916,
        "timestamp": "2025-12-27T07:26:25.499839+00:00",
        "meta_object_name": "FENGYUN 1C DEB",
        "meta_object_id": "1999-025AQR",
        "meta_epoch": "2025-12-25T13:06:58.710240",
        "meta_mean_motion": 14.00429844,
        "meta_eccentricity": 0.0138248,
        "meta_inclination": 99.4266,
        "meta_ra_of_asc_node": 11.4351,
        "meta_arg_of_pericenter": 189.5826,
        "meta_mean_anomaly": 326.7246,
        "meta_ephemeris_type": 0,
        "meta_classification_type": "U",
        "meta_norad_cat_id": 30683,
        "meta_element_set_no": 999,
        "meta_rev_at_epoch": 95730,
        "meta_bstar": 0.001076,
        "meta_mean_motion_dot": 1.686e-05,
        "meta_mean_motion_ddot": 0,
        "tle_line1": "1 30683U 99025AQR 25359.54651285  .00001686  00000+0  10760-2 0  9991",
        "tle_line2": "2 30683  99.4266  11.4351 0138248 189.5826 326.7246 14.00429844957308"
      },
      "geometry": {
        "type": "Point",
        "coordinates": [
          5.067707558933314,
          40.5969859878384
        ]
      }
    },
    {
      "type": "Feature",
      "properties": {
        "norad_id": 30684,
        "name": "FENGYUN 1C DEB",
        "group": "fengyun-1c-debris",
        "lat": -74.72663541632036,
        "lon": -175.4763648729344,
        "alt_km": 860.5792892591944,
        "timestamp": "2025-12-27T07:26:25.499850+00:00",
        "meta_object_name": "FENGYUN 1C DEB",
        "meta_object_id": "1999-025AQS",
        "meta_epoch": "2025-12-25T13:46:12.707616",
        "meta_mean_motion": 13.66832566,
        "meta_eccentricity": 0.023623,
        "meta_inclination": 99.5309,
        "meta_ra_of_asc_node": 40.7807,
        "meta_arg_of_pericenter": 236.4133,
        "meta_mean_anomaly": 121.4261,
        "meta_ephemeris_type": 0,
        "meta_classification_type": "U",
        "meta_norad_cat_id": 30684,
        "meta_element_set_no": 999,
        "meta_rev_at_epoch": 93804,
        "meta_bstar": 0.0010195,
        "meta_mean_motion_dot": 9.85e-06,
        "meta_mean_motion_ddot": 0,
        "tle_line1": "1 30684U 99025AQS 25359.57375819  .00000985  00000+0  10195-2 0  9994",
        "tle_line2": "2 30684  99.5309  40.7807 0236230 236.4133 121.4261 13.66832566938049"
      },
      "geometry": {
        "type": "Point",
        "coordinates": [
          -175.4763648729344,
          -74.72663541632036
        ]
      }
    },
    {
      "type": "Feature",
      "properties": {
        "norad_id": 30686,
        "name": "FENGYUN 1C DEB",
        "group": "fengyun-1c-debris",
        "lat": 47.463565588404265,
        "lon": -173.12016229453351,
        "alt_km": 553.6190080226652,
        "timestamp": "2025-12-27T07:26:25.499860+00:00",
        "meta_object_name": "FENGYUN 1C DEB",
        "meta_object_id": "1999-025AQU",
        "meta_epoch": "2025-12-25T00:31:59.014848",
        "meta_mean_motion": 14.73999147,
        "meta_eccentricity": 0.01440618,
        "meta_inclination": 99.0328,
        "meta_ra_of_asc_node": 194.3169,
        "meta_arg_of_pericenter": 82.5561,
        "meta_mean_anomaly": 73.5306,
        "meta_ephemeris_type": 0,
        "meta_classification_type": "U",
        "meta_norad_cat_id": 30686,
        "meta_element_set_no": 999,
        "meta_rev_at_epoch": 99782,
        "meta_bstar": 0.00068849051,
        "meta_mean_motion_dot": 5.279e-05,
        "meta_mean_motion_ddot": 0,
        "tle_line1": "1 30686U 99025AQU 25359.02221082  .00005279  00000+0  68849-3 0  9999",
        "tle_line2": "2 30686  99.0328 194.3169 0144061  82.5561  73.5306 14.73999147997825"
      },
      "geometry": {
        "type": "Point",
        "coordinates": [
          -173.12016229453351,
          47.463565588404265
        ]
      }
    },
    {
      "type": "Feature",
      "properties": {
        "norad_id": 30688,
        "name": "FENGYUN 1C DEB",
        "group": "fengyun-1c-debris",
        "lat": 6.400959657717812,
        "lon": 73.7593080852428,
        "alt_km": 785.6545934339538,
        "timestamp": "2025-12-27T07:26:25.499871+00:00",
        "meta_object_name": "FENGYUN 1C DEB",
        "meta_object_id": "1999-025AQW",
        "meta_epoch": "2025-12-26T17:01:59.077920",
        "meta_mean_motion": 14.32813394,
        "meta_eccentricity": 0.00160107,
        "meta_inclination": 98.6998,
        "meta_ra_of_asc_node": 74.141,
        "meta_arg_of_pericenter": 271.9042,
        "meta_mean_anomaly": 239.8117,
        "meta_ephemeris_type": 0,
        "meta_classification_type": "U",
        "meta_norad_cat_id": 30688,
        "meta_element_set_no": 999,
        "meta_rev_at_epoch": 97460,
        "meta_bstar": 0.0016528014,
        "meta_mean_motion_dot": 4.471e-05,
        "meta_mean_motion_ddot": 0,
        "tle_line1": "1 30688U 99025AQW 25360.70971155  .00004471  00000+0  16528-2 0  9990",
        "tle_line2": "2 30688  98.6998  74.1410 0016010 271.9042 239.8117 14.32813394974601"
      },
      "geometry": {
        "type": "Point",
        "coordinates": [
          73.7593080852428,
          6.400959657717812
        ]
      }
    },
    {
      "type": "Feature",
      "properties": {
        "norad_id": 30689,
        "name": "FENGYUN 1C DEB",
        "group": "fengyun-1c-debris",
        "lat": -18.569697541285553,
        "lon": -9.926975521571851,
        "alt_km": 844.6251871662926,
        "timestamp": "2025-12-27T07:26:25.499881+00:00",
        "meta_object_name": "FENGYUN 1C DEB",
        "meta_object_id": "1999-025AQX",
        "meta_epoch": "2025-12-26T23:18:49.677120",
        "meta_mean_motion": 14.11789332,
        "meta_eccentricity": 0.01117609,
        "meta_inclination": 98.7094,
        "meta_ra_of_asc_node": 346.7924,
        "meta_arg_of_pericenter": 63.2237,
        "meta_mean_anomaly": 359.3607,
        "meta_ephemeris_type": 0,
        "meta_classification_type": "U",
        "meta_norad_cat_id": 30689,
        "meta_element_set_no": 999,
        "meta_rev_at_epoch": 97091,
        "meta_bstar": 0.0004994226,
        "meta_mean_motion_dot": 9.24e-06,
        "meta_mean_motion_ddot": 0,
        "tle_line1": "1 30689U 99025AQX 25360.97140830  .00000924  00000+0  49942-3 0  9994",
        "tle_line2": "2 30689  98.7094 346.7924 0111760  63.2237 359.3607 14.11789332970917"
      },
      "geometry": {
        "type": "Point",
        "coordinates": [
          -9.926975521571851,
          -18.569697541285553
        ]
      }
    },
    {
      "type": "Feature",
      "properties": {
        "norad_id": 30690,
        "name": "FENGYUN 1C DEB",
        "group": "fengyun-1c-debris",
        "lat": -73.2065589060567,
        "lon": 79.46431994311747,
        "alt_km": 951.199492754019,
        "timestamp": "2025-12-27T07:26:25.499891+00:00",
        "meta_object_name": "FENGYUN 1C DEB",
        "meta_object_id": "1999-025AQY",
        "meta_epoch": "2025-12-26T18:29:20.666112",
        "meta_mean_motion": 14.02390362,
        "meta_eccentricity": 0.01049475,
        "meta_inclination": 99.1594,
        "meta_ra_of_asc_node": 291.2388,
        "meta_arg_of_pericenter": 37.7194,
        "meta_mean_anomaly": 15.949,
        "meta_ephemeris_type": 0,
        "meta_classification_type": "U",
        "meta_norad_cat_id": 30690,
        "meta_element_set_no": 999,
        "meta_rev_at_epoch": 95904,
        "meta_bstar": 0.0018026931,
        "meta_mean_motion_dot": 2.861e-05,
        "meta_mean_motion_ddot": 0,
        "tle_line1": "1 30690U 99025AQY 25360.77037808  .00002861  00000+0  18027-2 0  9995",
        "tle_line2": "2 30690  99.1594 291.2388 0104947  37.7194  15.9490 14.02390362959041"
      },
      "geometry": {
        "type": "Point",
        "coordinates": [
          79.46431994311747,
          -73.2065589060567
        ]
      }
    },
    {
      "type": "Feature",
      "properties": {
        "norad_id": 30691,
        "name": "FENGYUN 1C DEB",
        "group": "fengyun-1c-debris",
        "lat": -60.658726690980814,
        "lon": 27.7227576364106,
        "alt_km": 962.6559790752217,
        "timestamp": "2025-12-27T07:26:25.499901+00:00",
        "meta_object_name": "FENGYUN 1C DEB",
        "meta_object_id": "1999-025AQZ",
        "meta_epoch": "2025-12-25T13:10:12.042336",
        "meta_mean_motion": 13.89468034,
        "meta_eccentricity": 0.0139659,
        "meta_inclination": 98.7427,
        "meta_ra_of_asc_node": 10.181,
        "meta_arg_of_pericenter": 198.0062,
        "meta_mean_anomaly": 293.4196,
        "meta_ephemeris_type": 0,
        "meta_classification_type": "U",
        "meta_norad_cat_id": 30691,
        "meta_element_set_no": 999,
        "meta_rev_at_epoch": 95294,
        "meta_bstar": 0.001004,
        "meta_mean_motion_dot": 1.286e-05,
        "meta_mean_motion_ddot": 0,
        "tle_line1": "1 30691U 99025AQZ 25359.54875049  .00001286  00000+0  10040-2 0  9993",
        "tle_line2": "2 30691  98.7427  10.1810 0139659 198.0062 293.4196 13.89468034952947"
      },
      "geometry": {
        "type": "Point",
        "coordinates": [
          27.7227576364106,
          -60.658726690980814
        ]
      }
    }
  ]
}